GLOBALSTAR M045         
1 25676U 99019A   24117.21929640 -.00000041  00000+0  46411-3 0  9996
2 25676  51.9988  53.6862 0000845  90.7553  57.2206 12.27036426142444
GLOBALSTAR M044         
1 25678U 99019C   24117.15268515 -.00000062  00000+0  29585-3 0  9994
2 25678  51.9985  54.0902 0006230 319.5272 145.1709 11.90231343121645
GLOBALSTAR M025         
1 25770U 99031A   24117.13921185 -.00000057  00000+0  31380-3 0  9998
2 25770  51.9845  45.3834 0001274 154.2297 312.4419 11.22550425 92536
GLOBALSTAR M049         
1 25771U 99031B   24116.12760525 -.00000077  00000+0 -41029-3 0  9990
2 25771  51.9887  61.4800 0003135  31.9329 328.1657 11.12103309 70910
GLOBALSTAR M047         
1 25772U 99031C   24116.89437741 -.00000086  00000+0 -45951-3 0  9994
2 25772  51.9815  96.5798 0016394 267.0666  92.8263 11.31920216423852
GLOBALSTAR M052         
1 25773U 99031D   24116.92981836 -.00000074  00000+0 -28215-3 0  9999
2 25773  51.9844 174.2109 0003016 200.2272 212.0993 11.15050729431966
